IRIDIUM 166             
1 43570U 18061B   25283.17488963  .00000304  00000+0  10152-3 0  9999
2 43570  86.4018 161.2531 0001976  78.9432 281.1986 14.34219434377561
IRIDIUM 158             
1 43571U 18061C   25283.14317633  .00000323  00000+0  10826-3 0  9991
2 43571  86.4018 161.2763 0002270  84.5282 275.6173 14.34218331377520
IRIDIUM 165             
1 43572U 18061D   25283.16854654  .00000341  00000+0  11452-3 0  9999
2 43572  86.4019 161.3071 0002033  82.7018 277.4408 14.34219048377559
IRIDIUM 155             
1 43573U 18061E   25282.36303589  .00000884  00000+0  30850-3 0  9992
2 43573  86.4016 161.5248 0002293  77.8212 282.3241 14.34217575377401
IRIDIUM 154             
1 43574U 18061F   25283.11148174  .00000311  00000+0  10390-3 0  9996
2 43574  86.4020 161.3336 0002096  83.0335 277.1099 14.34212744377562
IRIDIUM 163             
1 43575U 18061G   25283.16220470  .00000021  00000+0  43622-6 0  9997
2 43575  86.4018 161.2357 0002209  86.5172 273.6276 14.34218191377543
IRIDIUM 156             
1 43576U 18061H   25283.06706463  .00000254  00000+0  83760-4 0  9991
2 43576  86.4017 161.2825 0002209  76.3546 283.7896 14.34218541377522
IRIDIUM 164             
1 43577U 18061J   25283.11780450  .00000113  00000+0  33386-4 0  9999
2 43577  86.4018 161.2976 0001935  80.7804 279.3611 14.34217435377574
